{"type": "FeatureCollection", "features": [ {"type": "Feature", "properties": {"norad_id": 40701, "name": "GAOFEN-8", "group": "resource", "lat": -80.2499388831372, "lon": -55.70529886690283, "alt_km": 464.10203057646504, "timestamp": "2025-12-23T11:34:47.839205+00:00", "meta": {"OBJECT_NAME": "GAOFEN-8", "OBJECT_ID": "2015-030A", "EPOCH": "2025-12-23T05:45:18.550656", "MEAN_MOTION": 15.38870522, "ECCENTRICITY": 0.0011364, "INCLINATION": 97.6907, "RA_OF_ASC_NODE": 175.8941, "ARG_OF_PERICENTER": 102.2521, "MEAN_ANOMALY": 257.9997, "EPHEMERIS_TYPE": 0, "CLASSIFICATION_TYPE": "U", "NORAD_CAT_ID": 40701, "ELEMENT_SET_NO": 999, "REV_AT_EPOCH": 58432, "BSTAR": 0.0018683, "MEAN_MOTION_DOT": 0.00072496, "MEAN_MOTION_DDOT": 0}, "tle": {"line1": "1 40701U 15030A   25357.23979804  .00072496  00000+0  18683-2 0  9990", "line2": "2 40701  97.6907 175.8941 0011364 102.2521 257.9997 15.38870522584326"}}, "geometry": {"type": "Point", "coordinates": [-55.70529886690283, -80.2499388831372]}}, {"type": "Feature", "properties": {"norad_id": 40718, "name": "CARBONITE 1 (CBNT-1)", "group": "resource", "lat": -14.707941888945097, "lon": -3.965495224419179, "alt_km": 618.1518349926091, "timestamp": "2025-12-23T11:34:47.839214+00:00", "meta": {"OBJECT_NAME": "CARBONITE 1 (CBNT-1)", "OBJECT_ID": "2015-032D", "EPOCH": "2025-12-23T04:13:37.936128", "MEAN_MOTION": 14.82786624, "ECCENTRICITY": 0.0015146, "INCLINATION": 97.6394, "RA_OF_ASC_NODE": 177.7608, "ARG_OF_PERICENTER": 147.8304, "MEAN_ANOMALY": 212.3837, "EPHEMERIS_TYPE": 0, "CLASSIFICATION_TYPE": "U", "NORAD_CAT_ID": 40718, "ELEMENT_SET_NO": 999, "REV_AT_EPOCH": 56325, "BSTAR": 0.0001771, "MEAN_MOTION_DOT": 1.384e-05, "MEAN_MOTION_DDOT": 0}, "tle": {"line1": "1 40718U 15032D   25357.17613352  .00001384  00000+0  17710-3 0  9995", "line2": "2 40718  97.6394 177.7608 0015146 147.8304 212.3837 14.82786624563255"}}, "geometry": {"type": "Point", "coordinates": [-3.965495224419179, -14.707941888945097]}}, {"type": "Feature", "properties": {"norad_id": 40878, "name": "YAOGAN-27", "group": "resource", "lat": -62.175681288354696, "lon": 6.35488818357109, "alt_km": 1202.2417090345307, "timestamp": "2025-12-23T11:34:47.839223+00:00", "meta": {"OBJECT_NAME": "YAOGAN-27", "OBJECT_ID": "2015-040A", "EPOCH": "2025-12-23T04:36:21.868128", "MEAN_MOTION": 13.16060996, "ECCENTRICITY": 0.0007555, "INCLINATION": 100.101, "RA_OF_ASC_NODE": 346.3389, "ARG_OF_PERICENTER": 260.8002, "MEAN_ANOMALY": 99.2258, "EPHEMERIS_TYPE": 0, "CLASSIFICATION_TYPE": "U", "NORAD_CAT_ID": 40878, "ELEMENT_SET_NO": 999, "REV_AT_EPOCH": 49451, "BSTAR": 0.00076747, "MEAN_MOTION_DOT": 2.49e-06, "MEAN_MOTION_DDOT": 0}, "tle": {"line1": "1 40878U 15040A   25357.19191977  .00000249  00000+0  76747-3 0  9991", "line2": "2 40878 100.1010 346.3389 0007555 260.8002  99.2258 13.16060996494517"}}, "geometry": {"type": "Point", "coordinates": [6.35488818357109, -62.175681288354696]}}, {"type": "Feature", "properties": {"norad_id": 40894, "name": "GAOFEN-9 01", "group": "resource", "lat": 75.04688957392321, "lon": -113.79774781225468, "alt_km": 618.8444979112282, "timestamp": "2025-12-23T11:34:47.839232+00:00", "meta": {"OBJECT_NAME": "GAOFEN-9 01", "OBJECT_ID": "2015-047A", "EPOCH": "2025-12-23T04:38:21.467328", "MEAN_MOTION": 14.82446976, "ECCENTRICITY": 0.0027538, "INCLINATION": 97.6529, "RA_OF_ASC_NODE": 35.6967, "ARG_OF_PERICENTER": 0.57, "MEAN_ANOMALY": 359.5541, "EPHEMERIS_TYPE": 0, "CLASSIFICATION_TYPE": "U", "NORAD_CAT_ID": 40894, "ELEMENT_SET_NO": 999, "REV_AT_EPOCH": 55411, "BSTAR": 0.00013993, "MEAN_MOTION_DOT": 1.078e-05, "MEAN_MOTION_DDOT": 0}, "tle": {"line1": "1 40894U 15047A   25357.19330402  .00001078  00000+0  13993-3 0  9999", "line2": "2 40894  97.6529  35.6967 0027538   0.5700 359.5541 14.82446976554117"}}, "geometry": {"type": "Point", "coordinates": [-113.79774781225468, 75.04688957392321]}}, {"type": "Feature", "properties": {"norad_id": 41026, "name": "YAOGAN-28", "group": "resource", "lat": 73.8728058698011, "lon": 108.72718123128894, "alt_km": 476.8466201271058, "timestamp": "2025-12-23T11:34:47.839241+00:00", "meta": {"OBJECT_NAME": "YAOGAN-28", "OBJECT_ID": "2015-064A", "EPOCH": "2025-12-23T04:56:56.384160", "MEAN_MOTION": 15.24511845, "ECCENTRICITY": 0.0012657, "INCLINATION": 97.2817, "RA_OF_ASC_NODE": 134.7043, "ARG_OF_PERICENTER": 92.8494, "MEAN_ANOMALY": 267.4192, "EPHEMERIS_TYPE": 0, "CLASSIFICATION_TYPE": "U", "NORAD_CAT_ID": 41026, "ELEMENT_SET_NO": 999, "REV_AT_EPOCH": 56384, "BSTAR": 0.00036008, "MEAN_MOTION_DOT": 8.808e-05, "MEAN_MOTION_DDOT": 0}, "tle": {"line1": "1 41026U 15064A   25357.20620815  .00008808  00000+0  36008-3 0  9998", "line2": "2 41026  97.2817 134.7043 0012657  92.8494 267.4192 15.24511845563841"}}, "geometry": {"type": "Point", "coordinates": [108.72718123128894, 73.8728058698011]}}, {"type": "Feature", "properties": {"norad_id": 41038, "name": "YAOGAN-29", "group": "resource", "lat": 7.995482681301581, "lon": 19.553146171124435, "alt_km": 622.600820709973, "timestamp": "2025-12-23T11:34:47.839250+00:00", "meta": {"OBJECT_NAME": "YAOGAN-29", "OBJECT_ID": "2015-069A", "EPOCH": "2025-12-23T05:03:57.090816", "MEAN_MOTION": 14.82891768, "ECCENTRICITY": 7.02e-05, "INCLINATION": 98.0204, "RA_OF_ASC_NODE": 20.4157, "ARG_OF_PERICENTER": 172.0225, "MEAN_ANOMALY": 188.1, "EPHEMERIS_TYPE": 0, "CLASSIFICATION_TYPE": "U", "NORAD_CAT_ID": 41038, "ELEMENT_SET_NO": 999, "REV_AT_EPOCH": 54454, "BSTAR": 3.0503e-05, "MEAN_MOTION_DOT": 1.93e-06, "MEAN_MOTION_DDOT": 0}, "tle": {"line1": "1 41038U 15069A   25357.21107744  .00000193  00000+0  30503-4 0  9992", "line2": "2 41038  98.0204  20.4157 0000702 172.0225 188.1000 14.82891768544542"}}, "geometry": {"type": "Point", "coordinates": [19.553146171124435, 7.995482681301581]}}, {"type": "Feature", "properties": {"norad_id": 41167, "name": "KENT RIDGE 1", "group": "resource", "lat": 10.143626628474845, "lon": -90.57453994333785, "alt_km": 501.3337255209317, "timestamp": "2025-12-23T11:34:47.839259+00:00", "meta": {"OBJECT_NAME": "KENT RIDGE 1", "OBJECT_ID": "2015-077B", "EPOCH": "2025-12-22T17:40:34.836384", "MEAN_MOTION": 15.21707626, "ECCENTRICITY": 0.00085399, "INCLINATION": 14.9787, "RA_OF_ASC_NODE": 136.9576, "ARG_OF_PERICENTER": 272.009, "MEAN_ANOMALY": 87.9254, "EPHEMERIS_TYPE": 0, "CLASSIFICATION_TYPE": "U", "NORAD_CAT_ID": 41167, "ELEMENT_SET_NO": 999, "REV_AT_EPOCH": 55416, "BSTAR": 0.00015311914, "MEAN_MOTION_DOT": 4.327e-05, "MEAN_MOTION_DDOT": 0}, "tle": {"line1": "1 41167U 15077B   25356.73651431  .00004327  00000+0  15312-3 0  9990", "line2": "2 41167  14.9787 136.9576 0008539 272.0090  87.9254 15.21707626554162"}}, "geometry": {"type": "Point", "coordinates": [-90.57453994333785, 10.143626628474845]}}, {"type": "Feature", "properties": {"norad_id": 41194, "name": "GAOFEN-4", "group": "resource", "lat": -0.18374206300314241, "lon": 11.676712635223211, "alt_km": 35798.10974738992, "timestamp": "2025-12-23T11:34:47.839272+00:00", "meta": {"OBJECT_NAME": "GAOFEN-4", "OBJECT_ID": "2015-083A", "EPOCH": "2025-12-19T15:27:26.627616", "MEAN_MOTION": 1.00273138, "ECCENTRICITY": 0.0002945, "INCLINATION": 0.1878, "RA_OF_ASC_NODE": 81.7841, "ARG_OF_PERICENTER": 93.4275, "MEAN_ANOMALY": 250.8523, "EPHEMERIS_TYPE": 0, "CLASSIFICATION_TYPE": "U", "NORAD_CAT_ID": 41194, "ELEMENT_SET_NO": 999, "REV_AT_EPOCH": 3672, "BSTAR": 0, "MEAN_MOTION_DOT": -3.11e-06, "MEAN_MOTION_DDOT": 0}, "tle": {"line1": "1 41194U 15083A   25353.64405819 -.00000311  00000+0  00000+0 0  9995", "line2": "2 41194   0.1878  81.7841 0002945  93.4275 250.8523  1.00273138 36722"}}, "geometry": {"type": "Point", "coordinates": [11.676712635223211, -0.18374206300314241]}}, {"type": "Feature", "properties": {"norad_id": 41240, "name": "JASON-3", "group": "resource", "lat": 55.31377216579081, "lon": 175.2147511743402, "alt_km": 1309.761617327964, "timestamp": "2025-12-23T11:34:47.839282+00:00", "meta": {"OBJECT_NAME": "JASON-3", "OBJECT_ID": "2016-002A", "EPOCH": "2025-12-23T01:55:39.014688", "MEAN_MOTION": 12.8762696, "ECCENTRICITY": 0.000726, "INCLINATION": 66.0402, "RA_OF_ASC_NODE": 136.0841, "ARG_OF_PERICENTER": 271.3884, "MEAN_ANOMALY": 88.6303, "EPHEMERIS_TYPE": 0, "CLASSIFICATION_TYPE": "U", "NORAD_CAT_ID": 41240, "ELEMENT_SET_NO": 999, "REV_AT_EPOCH": 46457, "BSTAR": 6.3776e-05, "MEAN_MOTION_DOT": -4.6e-07, "MEAN_MOTION_DDOT": 0}, "tle": {"line1": "1 41240U 16002A   25357.08031267 -.00000046  00000+0  63776-4 0  9992", "line2": "2 41240  66.0402 136.0841 0007260 271.3884  88.6303 12.87626960464573"}}, "geometry": {"type": "Point", "coordinates": [175.2147511743402, 55.31377216579081]}}, {"type": "Feature", "properties": {"norad_id": 41335, "name": "SENTINEL-3A", "group": "resource", "lat": 58.05816299908996, "lon": 48.246659840412995, "alt_km": 796.5150085560117, "timestamp": "2025-12-23T11:34:47.839291+00:00", "meta": {"OBJECT_NAME": "SENTINEL-3A", "OBJECT_ID": "2016-011A", "EPOCH": "2025-12-23T02:53:17.623968", "MEAN_MOTION": 14.26734619, "ECCENTRICITY": 8.93e-05, "INCLINATION": 98.6299, "RA_OF_ASC_NODE": 61.988, "ARG_OF_PERICENTER": 95.4388, "MEAN_ANOMALY": 264.6894, "EPHEMERIS_TYPE": 0, "CLASSIFICATION_TYPE": "U", "NORAD_CAT_ID": 41335, "ELEMENT_SET_NO": 999, "REV_AT_EPOCH": 51295, "BSTAR": 7.9529e-05, "MEAN_MOTION_DOT": 1.49e-06, "MEAN_MOTION_DDOT": 0}, "tle": {"line1": "1 41335U 16011A   25357.12034287  .00000149  00000+0  79529-4 0  9993", "line2": "2 41335  98.6299  61.9880 0000893  95.4388 264.6894 14.26734619512954"}}, "geometry": {"type": "Point", "coordinates": [48.246659840412995, 58.05816299908996]}}]}